{
    "links": {
        "self": "http://www.neowsapp.com/rest/v1/neo/3825452?api_key=iIulBulltgU6a56xZRHN4H3l9WmuAYTsLGpBGhQ2"
    },
    "id": "3825452",
    "neo_reference_id": "3825452",
    "name": "(2018 MR6)",
    "designation": "2018 MR6",
    "nasa_jpl_url": "http://ssd.jpl.nasa.gov/sbdb.cgi?sstr=3825452",
    "absolute_magnitude_h": 21.2,
    "estimated_diameter": {
        "kilometers": {
            "estimated_diameter_min": 0.1529519353,
            "estimated_diameter_max": 0.3420109247
        },
        "meters": {
            "estimated_diameter_min": 152.9519353442,
            "estimated_diameter_max": 342.0109247198
        },
        "miles": {
            "estimated_diameter_min": 0.095039897,
            "estimated_diameter_max": 0.2125156703
        },
        "feet": {
            "estimated_diameter_min": 501.8108275547,
            "estimated_diameter_max": 1122.0831222578
        }
    },
    "is_potentially_hazardous_asteroid": false,
    "close_approach_data": [
        {
            "close_approach_date": "1963-08-23",
            "close_approach_date_full": "1963-Aug-23 06:01",
            "epoch_date_close_approach": -200685540000,
            "relative_velocity": {
                "kilometers_per_second": "5.7366270567",
                "kilometers_per_hour": "20651.857404182",
                "miles_per_hour": "12832.2610631707"
            },
            "miss_distance": {
                "astronomical": "0.2334709455",
                "lunar": "90.8201977995",
                "kilometers": "34926756.153686085",
                "miles": "21702479.916534573"
            },
            "orbiting_body": "Earth"
        },
        {
            "close_approach_date": "1976-08-26",
            "close_approach_date_full": "1976-Aug-26 15:31",
            "epoch_date_close_approach": 209921460000,
            "relative_velocity": {
                "kilometers_per_second": "5.746035464",
                "kilometers_per_hour": "20685.7276703596",
                "miles_per_hour": "12853.3067293965"
            },
            "miss_distance": {
                "astronomical": "0.2571961924",
                "lunar": "100.0493188436",
                "kilometers": "38476002.555150188",
                "miles": "23907879.3646730744"
            },
            "orbiting_body": "Earth"
        },
        {
            "close_approach_date": "2031-08-20",
            "close_approach_date_full": "2031-Aug-20 20:06",
            "epoch_date_close_approach": 1945022760000,
            "relative_velocity": {
                "kilometers_per_second": "6.4236664661",
                "kilometers_per_hour": "23125.1992778016",
                "miles_per_hour": "14369.0995179206"
            },
            "miss_distance": {
                "astronomical": "0.3177988631",
                "lunar": "123.6237577459",
                "kilometers": "47542033.008181597",
                "miles": "29541249.4653441586"
            },
            "orbiting_body": "Earth"
        },
        {
            "close_approach_date": "2044-08-25",
            "close_approach_date_full": "2044-Aug-25 04:30",
            "epoch_date_close_approach": 2355712200000,
            "relative_velocity": {
                "kilometers_per_second": "5.4660858479",
                "kilometers_per_hour": "19677.9090523726",
                "miles_per_hour": "12227.0874331256"
            },
            "miss_distance": {
                "astronomical": "0.2138057665",
                "lunar": "83.1704431685",
                "kilometers": "31984887.262117355",
                "miles": "19874487.352455299"
            },
            "orbiting_body": "Earth"
        },
        {
            "close_approach_date": "2112-08-25",
            "close_approach_date_full": "2112-Aug-25 00:44",
            "epoch_date_close_approach": 4501529040000,
            "relative_velocity": {
                "kilometers_per_second": "5.6305696248",
                "kilometers_per_hour": "20270.0506492203",
                "miles_per_hour": "12595.0211936781"
            },
            "miss_distance": {
                "astronomical": "0.2331702864",
                "lunar": "90.7032414096",
                "kilometers": "34881778.192729968",
                "miles": "21674531.9075628384"
            },
            "orbiting_body": "Earth"
        }
    ],
    "orbital_data": {
        "orbit_id": "5",
        "orbit_determination_date": "2018-07-20 06:23:14",
        "first_observation_date": "2018-06-18",
        "last_observation_date": "2018-07-19",
        "data_arc_in_days": 31,
        "observations_used": 32,
        "orbit_uncertainty": "6",
        "minimum_orbit_intersection": ".213776",
        "jupiter_tisserand_invariant": "3.528",
        "epoch_osculation": "2459000.5",
        "eccentricity": ".4409509995188057",
        "semi_major_axis": "2.189296903761319",
        "inclination": "8.626398054853791",
        "ascending_node_longitude": "153.9322049542668",
        "orbital_period": "1183.192535569436",
        "perihelion_distance": "1.223924245804339",
        "perihelion_argument": "178.7493136227927",
        "aphelion_distance": "3.1546695617183",
        "perihelion_time": "2459569.545707286705",
        "mean_anomaly": "186.8612685892051",
        "mean_motion": ".3042615543773209",
        "equinox": "J2000",
        "orbit_class": {
            "orbit_class_type": "AMO",
            "orbit_class_description": "Near-Earth asteroid orbits similar to that of 1221 Amor",
            "orbit_class_range": "1.017 AU < q (perihelion) < 1.3 AU"
        }
    },
    "is_sentry_object": false
}